start=new Date('2022-05-19T00:00:00.000Z').valueOf();
sats=[{"NORAD_CAT_ID":"44238","RCS_SIZE":"LARGE","CENTER_NAME":"EARTH","PERIOD":"94.072","CLASSIFICATION_TYPE":"U","COUNTRY_CODE":"US","ECCENTRICITY":"0.00055090","MEAN_ANOMALY":"59.4426","MEAN_MOTION":"15.30738119","SEMIMAJOR_AXIS":"6851.746","ELEMENT_SET_NO":"999","INCLINATION":"53.0060","ARG_OF_PERICENTER":"300.6029","TIME_SYSTEM":"UTC","BSTAR":"0.00310580000000","MEAN_MOTION_DDOT":"0.0000000000000","OBJECT_NAME":"STARLINK-24","LAUNCH_DATE":"2019-05-24","OBJECT_ID":"2019-029D","RA_OF_ASC_NODE":"249.3719","GP_ID":"203903286","REV_AT_EPOCH":"16367","EPHEMERIS_TYPE":"0","FILE":"3452356","REF_FRAME":"TEME","MEAN_MOTION_DOT":"0.00094404","APOAPSIS":"477.385","DECAY_DATE":null,"PERIAPSIS":"469.836","EPOCH":"2022-05-18T17:51:14.301792","TLE_LINE1":"1 44238U 19029D   22138.74391553  .00094404  00000-0  31058-2 0  9995","SITE":"AFETR","OBJECT_TYPE":"PAYLOAD","MEAN_ELEMENT_THEORY":"SGP4","TLE_LINE2":"2 44238  53.0060 249.3719 0005509 300.6029  59.4426 15.30738119163672"},{"FILE":"3451360","EPHEMERIS_TYPE":"0","REF_FRAME":"TEME","MEAN_MOTION_DOT":"0.00216861","LAUNCH_DATE":"2019-05-24","OBJECT_ID":"2019-029Q","REV_AT_EPOCH":"16598","RA_OF_ASC_NODE":"207.0215","GP_ID":"203838116","OBJECT_TYPE":"PAYLOAD","MEAN_ELEMENT_THEORY":"SGP4","TLE_LINE2":"2 44249  52.9707 207.0215 0015662   6.7167 353.4046 15.47464508165987","APOAPSIS":"434.802","DECAY_DATE":null,"PERIAPSIS":"413.494","TLE_LINE1":"1 44249U 19029Q   22138.50013967  .00216861  00000-0  40358-2 0  9997","EPOCH":"2022-05-18T12:00:12.067488","SITE":"AFETR","PERIOD":"93.055","CENTER_NAME":"EARTH","COUNTRY_CODE":"US","CLASSIFICATION_TYPE":"U","MEAN_ANOMALY":"353.4046","ECCENTRICITY":"0.00156620","RCS_SIZE":"LARGE","NORAD_CAT_ID":"44249","BSTAR":"0.00403580000000","MEAN_MOTION_DDOT":"0.0000000000000","OBJECT_NAME":"STARLINK-61","SEMIMAJOR_AXIS":"6802.283","MEAN_MOTION":"15.47464508","TIME_SYSTEM":"UTC","INCLINATION":"52.9707","ELEMENT_SET_NO":"999","ARG_OF_PERICENTER":"6.7167"},{"TLE_LINE1":"1 44252U 19029T   22138.73027882  .00094178  00000-0  28651-2 0  9994","EPOCH":"2022-05-18T17:31:36.090048","SITE":"AFETR","APOAPSIS":"469.920","PERIAPSIS":"462.361","DECAY_DATE":null,"MEAN_ELEMENT_THEORY":"SGP4","TLE_LINE2":"2 44252  52.9966 245.7004 0005522 295.7535  64.2894 15.33244956164363","OBJECT_TYPE":"PAYLOAD","GP_ID":"203902284","RA_OF_ASC_NODE":"245.7004","REV_AT_EPOCH":"16436","LAUNCH_DATE":"2019-05-24","OBJECT_ID":"2019-029T","FILE":"3452356","EPHEMERIS_TYPE":"0","MEAN_MOTION_DOT":"0.00094178","REF_FRAME":"TEME","ELEMENT_SET_NO":"999","INCLINATION":"52.9966","ARG_OF_PERICENTER":"295.7535","TIME_SYSTEM":"UTC","MEAN_MOTION":"15.33244956","SEMIMAJOR_AXIS":"6844.275","OBJECT_NAME":"STARLINK-71","BSTAR":"0.00286510000000","MEAN_MOTION_DDOT":"0.0000000000000","NORAD_CAT_ID":"44252","RCS_SIZE":"LARGE","ECCENTRICITY":"0.00055220","MEAN_ANOMALY":"64.2894","PERIOD":"93.918","CENTER_NAME":"EARTH","CLASSIFICATION_TYPE":"U","COUNTRY_CODE":"US"},{"NORAD_CAT_ID":"44713","RCS_SIZE":"LARGE","ECCENTRICITY":"0.00017380","MEAN_ANOMALY":"281.2921","CLASSIFICATION_TYPE":"U","COUNTRY_CODE":"US","CENTER_NAME":"EARTH","PERIOD":"95.591","INCLINATION":"53.0536","ELEMENT_SET_NO":"999","ARG_OF_PERICENTER":"78.8263","TIME_SYSTEM":"UTC","MEAN_MOTION":"15.06410884","SEMIMAJOR_AXIS":"6925.315","OBJECT_NAME":"STARLINK-1007","MEAN_MOTION_DDOT":"0.0000000000000","BSTAR":"0.00032032000000","GP_ID":"203903325","RA_OF_ASC_NODE":"310.7183","REV_AT_EPOCH":"13910","OBJECT_ID":"2019-074A","LAUNCH_DATE":"2019-11-11","MEAN_MOTION_DOT":"0.00004494","REF_FRAME":"TEME","EPHEMERIS_TYPE":"0","FILE":"3452356","SITE":"AFETR","TLE_LINE1":"1 44713U 19074A   22138.76320031  .00004494  00000-0  32032-3 0  9992","EPOCH":"2022-05-18T18:19:00.506784","DECAY_DATE":null,"PERIAPSIS":"545.977","APOAPSIS":"548.384","MEAN_ELEMENT_THEORY":"SGP4","TLE_LINE2":"2 44713  53.0536 310.7183 0001738  78.8263 281.2921 15.06410884139105","OBJECT_TYPE":"PAYLOAD"},{"GP_ID":"203902073","RA_OF_ASC_NODE":"310.5399","REV_AT_EPOCH":"13911","OBJECT_ID":"2019-074B","LAUNCH_DATE":"2019-11-11","REF_FRAME":"TEME","MEAN_MOTION_DOT":"0.00017641","EPHEMERIS_TYPE":"0","FILE":"3452356","SITE":"AFETR","TLE_LINE1":"1 44714U 19074B   22138.80839599  .00017641  00000-0  12012-2 0  9995","EPOCH":"2022-05-18T19:24:05.413536","PERIAPSIS":"545.929","DECAY_DATE":null,"APOAPSIS":"548.680","TLE_LINE2":"2 44714  53.0536 310.5399 0001986  71.8320 288.2885 15.06370450139116","MEAN_ELEMENT_THEORY":"SGP4","OBJECT_TYPE":"PAYLOAD","NORAD_CAT_ID":"44714","RCS_SIZE":"LARGE","ECCENTRICITY":"0.00019860","MEAN_ANOMALY":"288.2885","CLASSIFICATION_TYPE":"U","COUNTRY_CODE":"US","PERIOD":"95.594","CENTER_NAME":"EARTH","ARG_OF_PERICENTER":"71.8320","ELEMENT_SET_NO":"999","INCLINATION":"53.0536","TIME_SYSTEM":"UTC","MEAN_MOTION":"15.06370450","SEMIMAJOR_AXIS":"6925.439","OBJECT_NAME":"STARLINK-1008","MEAN_MOTION_DDOT":"0.0000000000000","BSTAR":"0.00120120000000"},{"MEAN_MOTION_DOT":"0.00001734","REF_FRAME":"TEME","EPHEMERIS_TYPE":"0","FILE":"3452356","OBJECT_ID":"2019-074C","LAUNCH_DATE":"2019-11-11","RA_OF_ASC_NODE":"310.2862","GP_ID":"203902323","REV_AT_EPOCH":"13911","OBJECT_TYPE":"PAYLOAD","MEAN_ELEMENT_THEORY":"SGP4","TLE_LINE2":"2 44715  53.0551 310.2862 0001365  75.8754 284.2386 15.06405721139114","PERIAPSIS":"546.251","DECAY_DATE":null,"APOAPSIS":"548.141","SITE":"AFETR","TLE_LINE1":"1 44715U 19074C   22138.86366257  .00001734  00000-0  13523-3 0  9993","EPOCH":"2022-05-18T20:43:40.446048","CLASSIFICATION_TYPE":"U","COUNTRY_CODE":"US","CENTER_NAME":"EARTH","PERIOD":"95.592","ECCENTRICITY":"0.00013650","MEAN_ANOMALY":"284.2386","NORAD_CAT_ID":"44715","RCS_SIZE":"LARGE","MEAN_MOTION_DDOT":"0.0000000000000","BSTAR":"0.00013523000000","OBJECT_NAME":"STARLINK-1009","MEAN_MOTION":"15.06405721","SEMIMAJOR_AXIS":"6925.331","ELEMENT_SET_NO":"999","ARG_OF_PERICENTER":"75.8754","INCLINATION":"53.0551","TIME_SYSTEM":"UTC"},{"MEAN_MOTION_DOT":"0.00001086","REF_FRAME":"TEME","EPHEMERIS_TYPE":"0","FILE":"3452356","REV_AT_EPOCH":"13908","RA_OF_ASC_NODE":"310.8034","GP_ID":"203903574","OBJECT_ID":"2019-074D","LAUNCH_DATE":"2019-11-11","MEAN_ELEMENT_THEORY":"SGP4","TLE_LINE2":"2 44716  53.0552 310.8034 0001368  85.1566 274.9579 15.06403248139089","OBJECT_TYPE":"PAYLOAD","SITE":"AFETR","TLE_LINE1":"1 44716U 19074D   22138.74940106  .00001086  00000-0  91764-4 0  9996","EPOCH":"2022-05-18T17:59:08.251584","PERIAPSIS":"546.256","DECAY_DATE":null,"APOAPSIS":"548.151","MEAN_ANOMALY":"274.9579","ECCENTRICITY":"0.00013680","COUNTRY_CODE":"US","CLASSIFICATION_TYPE":"U","PERIOD":"95.592","CENTER_NAME":"EARTH","RCS_SIZE":"LARGE","NORAD_CAT_ID":"44716","OBJECT_NAME":"STARLINK-1010","MEAN_MOTION_DDOT":"0.0000000000000","BSTAR":"0.00009176400000","TIME_SYSTEM":"UTC","ELEMENT_SET_NO":"999","INCLINATION":"53.0552","ARG_OF_PERICENTER":"85.1566","SEMIMAJOR_AXIS":"6925.339","MEAN_MOTION":"15.06403248"},{"SEMIMAJOR_AXIS":"6925.344","MEAN_MOTION":"15.06401465","TIME_SYSTEM":"UTC","ARG_OF_PERICENTER":"51.2356","ELEMENT_SET_NO":"999","INCLINATION":"53.0559","MEAN_MOTION_DDOT":"0.0000000000000","BSTAR":"0.00004634800000","OBJECT_NAME":"STARLINK-1011","RCS_SIZE":"LARGE","NORAD_CAT_ID":"44717","COUNTRY_CODE":"US","CLASSIFICATION_TYPE":"U","PERIOD":"95.592","CENTER_NAME":"EARTH","MEAN_ANOMALY":"308.8803","ECCENTRICITY":"0.00019090","DECAY_DATE":null,"PERIAPSIS":"545.887","APOAPSIS":"548.531","SITE":"AFETR","EPOCH":"2022-05-17T19:38:56.046336","TLE_LINE1":"1 44717U 19074E   22137.81870424  .00000409  00000-0  46348-4 0  9995","OBJECT_TYPE":"PAYLOAD","TLE_LINE2":"2 44717  53.0559 334.9583 0001909  51.2356 308.8803 15.06401465138686","MEAN_ELEMENT_THEORY":"SGP4","OBJECT_ID":"2019-074E","LAUNCH_DATE":"2019-11-11","REV_AT_EPOCH":"13868","GP_ID":"203826146","RA_OF_ASC_NODE":"334.9583","REF_FRAME":"TEME","MEAN_MOTION_DOT":"0.00000409","EPHEMERIS_TYPE":"0","FILE":"3451081"},{"OBJECT_TYPE":"PAYLOAD","MEAN_ELEMENT_THEORY":"SGP4","TLE_LINE2":"2 44718  53.0569 312.1225 0001509  78.7542 281.3617 15.06397757139054","DECAY_DATE":null,"PERIAPSIS":"546.175","APOAPSIS":"548.265","SITE":"AFETR","EPOCH":"2022-05-18T10:54:31.290912","TLE_LINE1":"1 44718U 19074F   22138.45452883  .00000464  00000-0  50058-4 0  9996","REF_FRAME":"TEME","MEAN_MOTION_DOT":"0.00000464","FILE":"3451871","EPHEMERIS_TYPE":"0","OBJECT_ID":"2019-074F","LAUNCH_DATE":"2019-11-11","GP_ID":"203870651","RA_OF_ASC_NODE":"312.1225","REV_AT_EPOCH":"13905","MEAN_MOTION_DDOT":"0.0000000000000","BSTAR":"0.00005005800000","OBJECT_NAME":"STARLINK-1012","MEAN_MOTION":"15.06397757","SEMIMAJOR_AXIS":"6925.355","ARG_OF_PERICENTER":"78.7542","ELEMENT_SET_NO":"999","INCLINATION":"53.0569","TIME_SYSTEM":"UTC","CLASSIFICATION_TYPE":"U","COUNTRY_CODE":"US","PERIOD":"95.592","CENTER_NAME":"EARTH","ECCENTRICITY":"0.00015090","MEAN_ANOMALY":"281.3617","NORAD_CAT_ID":"44718","RCS_SIZE":"LARGE"},{"TLE_LINE1":"1 44719U 19074G   22138.59459679  .00001154  00000-0  96339-4 0  9991","EPOCH":"2022-05-18T14:16:13.162656","SITE":"AFETR","APOAPSIS":"548.145","DECAY_DATE":null,"PERIAPSIS":"546.323","MEAN_ELEMENT_THEORY":"SGP4","TLE_LINE2":"2 44719  53.0559 311.4958 0001315  61.9878 298.1244 15.06393283140201","OBJECT_TYPE":"PAYLOAD","RA_OF_ASC_NODE":"311.4958","GP_ID":"203902823","REV_AT_EPOCH":"14020","LAUNCH_DATE":"2019-11-11","OBJECT_ID":"2019-074G","EPHEMERIS_TYPE":"0","FILE":"3452356","REF_FRAME":"TEME","MEAN_MOTION_DOT":"0.00001154","ELEMENT_SET_NO":"999","INCLINATION":"53.0559","ARG_OF_PERICENTER":"61.9878","TIME_SYSTEM":"UTC","MEAN_MOTION":"15.06393283","SEMIMAJOR_AXIS":"6925.369","OBJECT_NAME":"STARLINK-1013","BSTAR":"0.00009633900000","MEAN_MOTION_DDOT":"0.0000000000000","NORAD_CAT_ID":"44719","RCS_SIZE":"LARGE","ECCENTRICITY":"0.00013150","MEAN_ANOMALY":"298.1244","PERIOD":"95.593","CENTER_NAME":"EARTH","CLASSIFICATION_TYPE":"U","COUNTRY_CODE":"US"}];
